#aV2011  8  3  0  0   .00000000      96 DD+AD WGS84 FIT  NGA
## 1647 259200.00000000   900.00000000 55776  .0000000000000
+   32     1  2  3  4  5  6  7  8  9 10 11 12 13 14 15 16 17
+         18 19 20 21 22 23 24 25 26 27 28 29 30 31 32  0  0
+          0  0  0  0  0  0  0  0  0  0  0  0  0  0  0  0  0
+          0  0  0  0  0  0  0  0  0  0  0  0  0  0  0  0  0
+          0  0  0  0  0  0  0  0  0  0  0  0  0  0  0  0  0
++         0  0  0  0  0  0  0  0  0  0  0  0  0  0  0  0  0
++         0  0  0  0  0  0  0  0  0  0  0  0  0  0  0  0  0
++         0  0  0  0  0  0  0  0  0  0  0  0  0  0  0  0  0
++         0  0  0  0  0  0  0  0  0  0  0  0  0  0  0  0  0
++         0  0  0  0  0  0  0  0  0  0  0  0  0  0  0  0  0
%c cc cc ccc ccc cccc cccc cccc cccc ccccc ccccc ccccc ccccc
%c cc cc ccc ccc cccc cccc cccc cccc ccccc ccccc ccccc ccccc
%f  0.0000000  0.000000000  0.00000000000  0.000000000000000
%f  0.0000000  0.000000000  0.00000000000  0.000000000000000
%i    0    0    0    0      0      0      0      0         0
%i    0    0    0    0      0      0      0      0         0
/*      NGA, ST. LOUIS,MO.                                  
/*   EPHEMERIS COMPUTED FROM  3 DAYS OF DATA                
/* CCCCCCCCCCCCCCCCCCCCCCCCCCCCCCCCCCCCCCCCCCCCCCCCCCCCCCCCC
/* CCCCCCCCCCCCCCCCCCCCCCCCCCCCCCCCCCCCCCCCCCCCCCCCCCCCCCCCC
*  2011  8  3 23 45   .00000000                                                 
P  1 -10669.754875  11578.011106 -21736.630949     -8.434317                    
V  1 -14776.975343 -22595.213810  -4792.473414       .012470                    
P  2 -14251.396047 -22732.057011    435.948294    349.698864                    
V  2   2847.256814  -1270.446957  30936.263940       .017495                    
P  3  13888.695160  12461.633715 -19442.092087    750.359952                    
V  3 -23267.577707   5150.708052 -13314.422032       .049224                    
P  4  -2746.987066 -22655.518356  13081.678026    191.192697                    
V  4  11665.547599  12947.075105  24812.915068       .109504                    
P  5  -6545.239980 -16934.351975 -19360.999063   -198.837178                    
V  5  12855.438079 -21045.347477  14177.226031      -.054599                    
P  6   8881.168811  14319.777305 -20432.152189   -106.577222                    
V  6 -26139.192999   3176.800930  -8827.033401       .108645                    
P  7  12219.490205  -8570.131396 -21959.308818     20.547307                    
V  7  14609.336659  23719.268901  -1351.784963       .015662                    
P  8   6060.263238 -16380.860028 -19786.853210      8.709366                    
V  8  12357.443747  22096.728192 -15031.556648       .001719                    
P  9 -18730.207657 -10755.659847  14890.848156     96.931486                    
V  9  -9332.431956 -17618.781212 -23612.502770       .024482                    
P 10   7449.728013 -24206.836537  -7537.268420     -8.863773                    
V 10   7484.411646  -6570.433476  29715.760100      -.011850                    
P 11  22485.710460   9866.879061  10201.001423   -173.828087                    
V 11   6892.289880  12337.087706 -25917.800750      -.032887                    
P 12 -16777.046856   1573.919893  20496.216670     13.511414                    
V 12  11894.305775 -23143.814176  11687.555759       .024841                    
P 13  24535.802716  -4791.364141  -9221.752051    258.053714                    
V 13  11351.949268   2241.355888  29416.788847      -.018105                    
P 14  -8352.683017  13902.925117  21167.242980    165.160696                    
V 14 -26438.174780  -1406.394429  -9728.763013       .020097                    
P 15 -24643.141483  -5047.020911  -8779.116405   -112.515269                    
V 15  10971.233921  -3337.037622 -28685.511776       .018721                    
P 16   6312.064780  16077.549381 -20075.977527   -189.563696                    
V 16 -13830.614869  21528.026601  13176.814346      -.023445                    
P 17   6964.343862 -14707.912831  21091.617795    180.389425                    
V 17  26496.971852    810.748652  -8461.015600      -.012148                    
P 18 -16638.312183  19045.658837  -7125.602304    150.513022                    
V 18   1276.147955 -10295.150562 -29518.775875       .018904                    
P 19  22718.229768   8898.723141 -10941.473807   -169.145278                    
V 19 -13846.416725   1463.972746 -27240.112171      -.040684                    
P 20  17833.070971  -4344.198522  19034.161838     51.341376                    
V 20  -9227.865016  22860.692721  13822.260897       .003894                    
P 21 -10964.216535  11615.421769 -20723.291320   -162.304218                    
V 21 -15102.343704 -23007.382249  -5408.397035      -.025427                    
P 22  -9477.074316  24301.589691   4857.164192    145.694870                    
V 22  -6223.719611   3384.132008 -30301.834826      -.004992                    
P 23  26736.162537    265.492060   1124.134918    286.826557                    
V 23  -1351.016704   2435.064433  31543.350489      -.029373                    
P 24  18571.067012   7642.491812  17579.294863    412.308837                    
V 24   9153.431405  20241.141379 -18218.732877       .032060                    
P 25 -17957.409069  13900.868932  13724.505945     12.269845                    
V 25   6182.350984 -16484.190981  24761.368013       .018152                    
P 26 -15903.765019 -12611.450680 -17933.610542   -112.072656                    
V 26  21400.491201    203.695267 -19405.725099      -.122888                    
P 27 -19417.002208 -14867.287978  11439.782478    291.224254                    
V 27  -6365.588974 -11864.377637 -27473.320004       .038628                    
P 28  12154.915831 -23397.874369   2192.009054     56.847302                    
V 28   3292.885557   -563.808944 -32082.499875       .029693                    
P 29 -24679.675434   5406.190112  -8049.747961    228.519795                    
V 29 -10307.433865  -2710.838821  29563.284459       .030250                    
P 30   -628.294924  23063.180126 -13565.980788     32.801174                    
V 30  -9087.768369  13980.374718  24978.409139       .059250                    
P 31   5177.032620  23391.309027  11430.397773    121.027413                    
V 31  -9080.274890 -11170.899707  27653.648118       .057202                    
P 32  14635.384155   5682.036215  21657.158569   -304.004463                    
V 32 -14287.234177  22833.934145   4132.932278      -.070271                    
EOF
